NORAD_CAT_ID,OBJECT_NAME,OBJECT_TYPE,EPOCH,MEAN_MOTION,ECCENTRICITY,INCLINATION,RA_OF_ASC_NODE,ARG_OF_PERICENTER,MEAN_ANOMALY,BSTAR,MEAN_MOTION_DOT,MEAN_MOTION_DDOT,TLE_LINE0,TLE_LINE1,TLE_LINE2,SEMIMAJOR_AXIS,PERIOD,APOGEE,PERIGEE,DECAYED
52877.0,STARLINK-4214,PAYLOAD,2024-08-12 07:00:53,15.08841189,0.0001196,53.2149,72.6972,81.7896,278.3232,-3.7025e-05,-8.77e-06,0.0,0 STARLINK-4214,1 52877U 22062AZ  24225.29228115 -.00000877  00000-0 -37025-4 0  9991,2 52877  53.2149  72.6972 0001196  81.7896 278.3232 15.08841189119849,6917.877,95.437,540.569,538.914,0.0
52877.0,STARLINK-4214,PAYLOAD,2024-08-13 13:13:14,15.08811277,0.0003037,53.2117,67.0529,78.9465,281.1869,-0.00044506,-7.36e-05,0.0,0 STARLINK-4214,1 52877U 22062AZ  24226.55085781 -.00007360  00000-0 -44506-3 0  9996,2 52877  53.2117  67.0529 0003037  78.9465 281.1869 15.08811277120032,6917.968,95.439,541.934,537.732,0.0
52877.0,STARLINK-4214,PAYLOAD,2024-08-13 19:34:47,15.0880797,0.0002874,53.211,65.8639,79.4177,280.7139,-0.00040012,-6.646e-05,0.0,0 STARLINK-4214,1 52877U 22062AZ  24226.81582339 -.00006646  00000-0 -40012-3 0  9990,2 52877  53.2110  65.8639 0002874  79.4177 280.7139 15.08807970119585,6917.978,95.44,541.832,537.855,0.0
52877.0,STARLINK-4214,PAYLOAD,2024-08-14 06:42:30,15.08808829,0.0003203,53.212,63.7836,78.9133,281.2219,-0.00024951,-4.254e-05,0.0,0 STARLINK-4214,1 52877U 22062AZ  24227.27951389 -.00004254  00000-0 -24951-3 0  9993,2 52877  53.2120  63.7836 0003203  78.9133 281.2219 15.08808829119652,6917.976,95.44,542.056,537.625,0.0
52877.0,STARLINK-4214,PAYLOAD,2024-08-14 19:25:34,15.08829017,0.0001774,53.2168,61.4004,91.7862,268.3333,0.0011207,0.00017588,0.0,0 STARLINK-4214,1 52877U 22062AZ  24227.80942984  .00017588  00000-0  11207-2 0  9994,2 52877  53.2168  61.4004 0001774  91.7862 268.3333 15.08829017120229,6917.914,95.438,541.006,538.552,0.0
52877.0,STARLINK-4214,PAYLOAD,2024-08-15 06:33:16,15.08843291,0.0001814,53.2166,59.3194,89.3374,270.7826,0.0008863,0.00013847,0.0,0 STARLINK-4214,1 52877U 22062AZ  24228.27310661  .00013847  00000-0  88630-3 0  9996,2 52877  53.2166  59.3194 0001814  89.3374 270.7826 15.08843291119805,6917.87,95.437,540.99,538.48,0.0
52877.0,STARLINK-4214,PAYLOAD,2024-08-15 19:16:20,15.08851989,0.0001849,53.2173,56.9401,91.616,268.5044,0.00053865,8.298e-05,0.0,0 STARLINK-4214,1 52877U 22062AZ  24228.80302007  .00008298  00000-0  53865-3 0  9996,2 52877  53.2173  56.9401 0001849  91.6160 268.5044 15.08851989119882,6917.844,95.437,540.988,538.43,0.0
52877.0,STARLINK-4214,PAYLOAD,2024-08-15 22:27:06,15.08853411,0.0001356,53.2173,56.3461,77.9426,282.1718,0.00045468,6.958e-05,0.0,0 STARLINK-4214,1 52877U 22062AZ  24228.93549593  .00006958  00000-0  45468-3 0  9994,2 52877  53.2173  56.3461 0001356  77.9426 282.1718 15.08853411120397,6917.839,95.437,540.642,538.766,0.0
52877.0,STARLINK-4214,PAYLOAD,2024-08-17 12:36:20,15.08874598,0.0001979,53.2145,49.2126,96.4853,263.6365,0.00047083,7.22e-05,0.0,0 STARLINK-4214,1 52877U 22062AZ  24230.52524250  .00007220  00000-0  47083-3 0  9993,2 52877  53.2145  49.2126 0001979  96.4853 263.6365 15.08874598120634,6917.775,95.435,541.009,538.271,0.0
52877.0,STARLINK-4214,PAYLOAD,2024-08-18 12:27:08,15.08846306,0.0001788,53.2172,44.7481,101.7946,258.3247,4.8873e-05,4.9e-06,0.0,0 STARLINK-4214,1 52877U 22062AZ  24231.51885031  .00000490  00000-0  48873-4 0  9991,2 52877  53.2172  44.7481 0001788 101.7946 258.3247 15.08846306120781,6917.861,95.437,540.963,538.489,0.0
52877.0,STARLINK-4214,PAYLOAD,2024-08-18 17:13:18,15.08844413,0.0001314,53.2171,43.8562,93.2686,266.8457,0.00014673,2.048e-05,0.0,0 STARLINK-4214,1 52877U 22062AZ  24231.71757186  .00002048  00000-0  14673-3 0  9993,2 52877  53.2171  43.8562 0001314  93.2686 266.8457 15.08844413120325,6917.867,95.437,540.641,538.823,0.0
52877.0,STARLINK-4214,PAYLOAD,2024-08-19 04:21:00,15.08841626,0.0001342,53.2177,41.7752,94.6369,265.4776,5.9238e-05,6.55e-06,0.0,0 STARLINK-4214,1 52877U 22062AZ  24232.18125259  .00000655  00000-0  59238-4 0  9994,2 52877  53.2177  41.7752 0001342  94.6369 265.4776 15.08841626120886,6917.875,95.437,540.669,538.812,0.0
52877.0,STARLINK-4214,PAYLOAD,2024-08-20 10:33:20,15.08838987,0.0001411,53.2186,36.1258,95.6247,264.4906,3.5301e-05,2.74e-06,0.0,0 STARLINK-4214,1 52877U 22062AZ  24233.43981504  .00000274  00000-0  35301-4 0  9998,2 52877  53.2186  36.1258 0001411  95.6247 264.4906 15.08838987121070,6917.883,95.438,540.725,538.772,0.0
52877.0,STARLINK-4214,PAYLOAD,2024-08-21 10:24:07,15.08832792,0.0001443,53.2187,31.6641,91.4366,268.6791,7.6104e-05,9.23e-06,0.0,0 STARLINK-4214,1 52877U 22062AZ  24234.43342477  .00000923  00000-0  76104-4 0  9996,2 52877  53.2187  31.6641 0001443  91.4366 268.6791 15.08832792121221,6917.902,95.438,540.766,538.769,0.0
52877.0,STARLINK-4214,PAYLOAD,2024-08-21 15:10:17,15.08832915,0.0001453,53.2186,30.7729,90.4243,269.6915,5.7738e-05,6.31e-06,0.0,0 STARLINK-4214,1 52877U 22062AZ  24234.63214599  .00000631  00000-0  57738-4 0  9999,2 52877  53.2186  30.7729 0001453  90.4243 269.6915 15.08832915120765,6917.902,95.438,540.772,538.762,0.0
52877.0,STARLINK-4214,PAYLOAD,2024-08-21 16:45:40,15.08838248,0.0001314,53.2182,30.4736,100.4117,259.7023,2.812e-05,1.6e-06,0.0,0 STARLINK-4214,1 52877U 22062AZ  24234.69838489  .00000160  00000-0  28120-4 0  9995,2 52877  53.2182  30.4736 0001314 100.4117 259.7023 15.08838248120770,6917.886,95.438,540.66,538.842,0.0
